IRIDIUM 171             
1 43929U 19002H   25148.45771945  .00000027  00000+0  25017-5 0  9999
2 43929  86.3986 154.6629 0002551  83.4705 276.6781 14.34217969333813
IRIDIUM 170             
1 43930U 19002J   25148.46794578  .00000373  00000+0  55182-4 0  9998
2 43930  86.6103 154.4172 0002888  94.4900 265.6647 14.72258131342651
IRIDIUM 167             
1 43931U 19002K   25148.45137757  .00000010  00000+0 -35991-5 0  9994
2 43931  86.3981 154.4210 0002690  87.3071 272.8433 14.34217541333816
IRIDIUM 181             
1 56726U 23068S   25148.18967552  .00000360  00000+0  10100-3 0  9991
2 56726  86.4541 217.5791 0002442  80.2245 279.9231 14.43309420106900
IRIDIUM 177             
1 56727U 23068T   25148.46662913  .00000516  00000+0  64402-4 0  9994
2 56727  86.1971 151.4875 0002681  86.2559 273.8969 14.80233665109455
IRIDIUM 174             
1 56728U 23068U   25148.59148901  .00000413  00000+0  61554-4 0  9996
2 56728  86.6111 154.4735 0002158  99.5053 260.6408 14.72275246109432
IRIDIUM 178             
1 56729U 23068V   25148.38813097  .00001116  00000+0  14348-3 0  9998
2 56729  86.6580 186.0929 0002256  92.7991 267.3489 14.80233450109448
IRIDIUM 179             
1 56730U 23068W   25148.51799042  .00001093  00000+0  14039-3 0  9999
2 56730  86.6824 193.8492 0002542  95.0850 265.0661 14.80229721109465
